{
  "type": "FeatureCollection",
  "features": [
    {
      "type": "Feature",
      "properties": {
        "norad_id": 66884,
        "name": "STARLINK-36057",
        "group": "last-30-days",
        "lat": 11.876866276354477,
        "lon": 29.953728780782743,
        "alt_km": 357.73124002624354,
        "timestamp": "2025-12-23T07:45:08.117505+00:00",
        "meta_object_name": "STARLINK-36057",
        "meta_object_id": "2025-283G",
        "meta_epoch": "2025-12-22T22:00:03.000096",
        "meta_mean_motion": 15.71771663,
        "meta_eccentricity": 0.00013014,
        "meta_inclination": 53.1589,
        "meta_ra_of_asc_node": 22.8884,
        "meta_arg_of_pericenter": 98.4137,
        "meta_mean_anomaly": 137.4676,
        "meta_ephemeris_type": 0,
        "meta_classification_type": "U",
        "meta_norad_cat_id": 66884,
        "meta_element_set_no": 999,
        "meta_rev_at_epoch": 406,
        "meta_bstar": -0.016299349,
        "meta_mean_motion_dot": -0.01873937,
        "meta_mean_motion_ddot": 0,
        "tle_line1": "1 66884U 25283G   25356.91670139 -.01873937  00000+0 -16299-1 0  9996",
        "tle_line2": "2 66884  53.1589  22.8884 0001301  98.4137 137.4676 15.71771663  4062"
      },
      "geometry": {
        "type": "Point",
        "coordinates": [
          29.953728780782743,
          11.876866276354477
        ]
      }
    },
    {
      "type": "Feature",
      "properties": {
        "norad_id": 66885,
        "name": "STARLINK-35954",
        "group": "last-30-days",
        "lat": 10.360136650649281,
        "lon": 28.76368486548802,
        "alt_km": 357.92512563125456,
        "timestamp": "2025-12-23T07:45:08.117515+00:00",
        "meta_object_name": "STARLINK-35954",
        "meta_object_id": "2025-283H",
        "meta_epoch": "2025-12-22T22:00:03.000096",
        "meta_mean_motion": 15.71776394,
        "meta_eccentricity": 0.00012525,
        "meta_inclination": 53.1589,
        "meta_ra_of_asc_node": 22.8926,
        "meta_arg_of_pericenter": 91.852,
        "meta_mean_anomaly": 142.1135,
        "meta_ephemeris_type": 0,
        "meta_classification_type": "U",
        "meta_norad_cat_id": 66885,
        "meta_element_set_no": 999,
        "meta_rev_at_epoch": 406,
        "meta_bstar": -0.016394177,
        "meta_mean_motion_dot": -0.01883659,
        "meta_mean_motion_ddot": 0,
        "tle_line1": "1 66885U 25283H   25356.91670139 -.01883659  00000+0 -16394-1 0  9995",
        "tle_line2": "2 66885  53.1589  22.8926 0001252  91.8520 142.1135 15.71776394  4067"
      },
      "geometry": {
        "type": "Point",
        "coordinates": [
          28.76368486548802,
          10.360136650649281
        ]
      }
    },
    {
      "type": "Feature",
      "properties": {
        "norad_id": 66886,
        "name": "STARLINK-35900",
        "group": "last-30-days",
        "lat": 13.403320030251411,
        "lon": 31.16874249720596,
        "alt_km": 357.9330499873313,
        "timestamp": "2025-12-23T07:45:08.117525+00:00",
        "meta_object_name": "STARLINK-35900",
        "meta_object_id": "2025-283J",
        "meta_epoch": "2025-12-22T22:00:03.000096",
        "meta_mean_motion": 15.71845118,
        "meta_eccentricity": 0.00013078,
        "meta_inclination": 53.1589,
        "meta_ra_of_asc_node": 22.8839,
        "meta_arg_of_pericenter": 120.6758,
        "meta_mean_anomaly": 117.1362,
        "meta_ephemeris_type": 0,
        "meta_classification_type": "U",
        "meta_norad_cat_id": 66886,
        "meta_element_set_no": 999,
        "meta_rev_at_epoch": 406,
        "meta_bstar": -0.017640192,
        "meta_mean_motion_dot": -0.02055529,
        "meta_mean_motion_ddot": 0,
        "tle_line1": "1 66886U 25283J   25356.91670139 -.02055529  00000+0 -17640-1 0  9999",
        "tle_line2": "2 66886  53.1589  22.8839 0001307 120.6758 117.1362 15.71845118  4061"
      },
      "geometry": {
        "type": "Point",
        "coordinates": [
          31.16874249720596,
          13.403320030251411
        ]
      }
    },
    {
      "type": "Feature",
      "properties": {
        "norad_id": 66887,
        "name": "STARLINK-35925",
        "group": "last-30-days",
        "lat": 14.89860241684028,
        "lon": 32.37931565343388,
        "alt_km": 357.11086203273226,
        "timestamp": "2025-12-23T07:45:08.117534+00:00",
        "meta_object_name": "STARLINK-35925",
        "meta_object_id": "2025-283K",
        "meta_epoch": "2025-12-22T22:00:03.000096",
        "meta_mean_motion": 15.71777396,
        "meta_eccentricity": 0.00011506,
        "meta_inclination": 53.1589,
        "meta_ra_of_asc_node": 22.8801,
        "meta_arg_of_pericenter": 86.6689,
        "meta_mean_anomaly": 153.0452,
        "meta_ephemeris_type": 0,
        "meta_classification_type": "U",
        "meta_norad_cat_id": 66887,
        "meta_element_set_no": 999,
        "meta_rev_at_epoch": 406,
        "meta_bstar": -0.016392507,
        "meta_mean_motion_dot": -0.01883477,
        "meta_mean_motion_ddot": 0,
        "tle_line1": "1 66887U 25283K   25356.91670139 -.01883477  00000+0 -16393-1 0  9994",
        "tle_line2": "2 66887  53.1589  22.8801 0001150  86.6689 153.0452 15.71777396  4062"
      },
      "geometry": {
        "type": "Point",
        "coordinates": [
          32.37931565343388,
          14.89860241684028
        ]
      }
    },
    {
      "type": "Feature",
      "properties": {
        "norad_id": 66888,
        "name": "STARLINK-35919",
        "group": "last-30-days",
        "lat": 16.397506921393433,
        "lon": 33.614780950123595,
        "alt_km": 356.8372728699651,
        "timestamp": "2025-12-23T07:45:08.117544+00:00",
        "meta_object_name": "STARLINK-35919",
        "meta_object_id": "2025-283L",
        "meta_epoch": "2025-12-22T22:00:03.000096",
        "meta_mean_motion": 15.71775408,
        "meta_eccentricity": 0.00012698,
        "meta_inclination": 53.1589,
        "meta_ra_of_asc_node": 22.8758,
        "meta_arg_of_pericenter": 88.9119,
        "meta_mean_anomaly": 152.7176,
        "meta_ephemeris_type": 0,
        "meta_classification_type": "U",
        "meta_norad_cat_id": 66888,
        "meta_element_set_no": 999,
        "meta_rev_at_epoch": 406,
        "meta_bstar": -0.016346058,
        "meta_mean_motion_dot": -0.0187882,
        "meta_mean_motion_ddot": 0,
        "tle_line1": "1 66888U 25283L   25356.91670139 -.01878820  00000+0 -16346-1 0  9999",
        "tle_line2": "2 66888  53.1589  22.8758 0001269  88.9119 152.7176 15.71775408  4069"
      },
      "geometry": {
        "type": "Point",
        "coordinates": [
          33.614780950123595,
          16.397506921393433
        ]
      }
    },
    {
      "type": "Feature",
      "properties": {
        "norad_id": 66889,
        "name": "STARLINK-35852",
        "group": "last-30-days",
        "lat": 17.890635367826803,
        "lon": 34.87081067713218,
        "alt_km": 356.59830424737993,
        "timestamp": "2025-12-23T07:45:08.117558+00:00",
        "meta_object_name": "STARLINK-35852",
        "meta_object_id": "2025-283M",
        "meta_epoch": "2025-12-22T22:00:03.000096",
        "meta_mean_motion": 15.71773459,
        "meta_eccentricity": 0.00013119,
        "meta_inclination": 53.1589,
        "meta_ra_of_asc_node": 22.8715,
        "meta_arg_of_pericenter": 91.4167,
        "meta_mean_anomaly": 152.1325,
        "meta_ephemeris_type": 0,
        "meta_classification_type": "U",
        "meta_norad_cat_id": 66889,
        "meta_element_set_no": 999,
        "meta_rev_at_epoch": 406,
        "meta_bstar": -0.016341604,
        "meta_mean_motion_dot": -0.01878277,
        "meta_mean_motion_ddot": 0,
        "tle_line1": "1 66889U 25283M   25356.91670139 -.01878277  00000+0 -16342-1 0  9992",
        "tle_line2": "2 66889  53.1589  22.8715 0001311  91.4167 152.1325 15.71773459  4067"
      },
      "geometry": {
        "type": "Point",
        "coordinates": [
          34.87081067713218,
          17.890635367826803
        ]
      }
    },
    {
      "type": "Feature",
      "properties": {
        "norad_id": 66890,
        "name": "STARLINK-35885",
        "group": "last-30-days",
        "lat": 19.3766598002333,
        "lon": 36.15011361293182,
        "alt_km": 356.50290096597746,
        "timestamp": "2025-12-23T07:45:08.117568+00:00",
        "meta_object_name": "STARLINK-35885",
        "meta_object_id": "2025-283N",
        "meta_epoch": "2025-12-22T22:00:03.000096",
        "meta_mean_motion": 15.71776833,
        "meta_eccentricity": 0.00012527,
        "meta_inclination": 53.1584,
        "meta_ra_of_asc_node": 22.8679,
        "meta_arg_of_pericenter": 104.0654,
        "meta_mean_anomaly": 141.3992,
        "meta_ephemeris_type": 0,
        "meta_classification_type": "U",
        "meta_norad_cat_id": 66890,
        "meta_element_set_no": 999,
        "meta_rev_at_epoch": 406,
        "meta_bstar": -0.0163703,
        "meta_mean_motion_dot": -0.01881316,
        "meta_mean_motion_ddot": 0,
        "tle_line1": "1 66890U 25283N   25356.91670139 -.01881316  00000+0 -16370-1 0  9993",
        "tle_line2": "2 66890  53.1584  22.8679 0001252 104.0654 141.3992 15.71776833  4068"
      },
      "geometry": {
        "type": "Point",
        "coordinates": [
          36.15011361293182,
          19.3766598002333
        ]
      }
    }
  ]
}